#dP2021  8 22  0  0  0.00000000      96 __u+U ITR00 FIT  IAC
## 2172      0.00000000   900.00000000 59448 0.0000000000000
+  123   C01C02C03C04C05C06C08C09C10C11C12C13C14C16C19C20C21
+        C22C23C24C25C26C27C28C29C30C32C33C34C35C36C37C38C39
+        C41C42C43C44C45C46C59C60E01E02E03E04E05E07E08E09E11
+        E12E13E14E15E18E19E21E24E25E26E27E30E31E33E36G01G02
+        G03G04G05G06G07G08G09G10G12G13G14G15G16G17G18G19G20
+        G21G22G23G24G25G26G27G28G29G30G31G32J02J03R01R02R03
+        R04R05R06R07R08R09R10R11R12R13R14R15R16R17R18R19R20
+        R21R22R23R24  0  0  0  0  0  0  0  0  0  0  0  0  0
++        13 12 12 13 12  9  9  9  9  8  9  9  8  9  7  7  7
++         7  7  7  7  7  7  7  7  7  7  7  7  8  8  7  8  8
++         7  7  7  8  8  7 13 12  5  4  4  4  4  4  4  4  4
++         4  4  5  4  4  4  5  5  4  5  4  4  4  6  4  3  4
++         3  4  4  3  4  4  4  4  3  4  3  4  4  4  4  4  4
++         4  4  4  3  3  4  4  4  4  4  4  4  8  8  7  6  6
++         6  6 13  6  6  6 13  8  6  7  6  6  7  6  6  7  7
++         6  7 13  6  0  0  0  0  0  0  0  0  0  0  0  0  0
%c M  cc GPS ccc cccc cccc cccc cccc ccccc ccccc ccccc ccccc
%c cc cc ccc ccc cccc cccc cccc cccc ccccc ccccc ccccc ccccc
%f  0.0000000  0.000000000  0.00000000000  0.000000000000000
%f  0.0000000  0.000000000  0.00000000000  0.000000000000000
%i    0    0    0    0      0      0      0      0         0
%i    0    0    0    0      0      0      0      0         0
/* INFORMATION & ANALYSIS CENTER (IAC)            RAPID DATA
/* S/V CLOCKS ARE ALIGNED TO GNSS TIME                      
/* G:C1WC2W R:C1PC2P E:C1XC5X C:C2IC6I J:C1CC2S             
/* PCV:IGS14_2163 OL/AL:FES2004  NONE     YN ORB:CoN CLK:CoN
*  2021 08 22  4 30  0.00000000
PC01 -34324.885364  24438.656426     90.821135   -149.980888
PC02   4247.606577  41953.215942    572.899500    401.752774
PC03 -14833.556452  39426.496458   1340.931724   -302.310062
PC04 -39613.530679  14361.200213    432.544248   -197.171293
PC05  21892.988926  36011.789204    561.843047      6.630841
PC06 -18419.178044  32828.010979 -19171.289483    790.530057
PC08 -13050.844983  17670.512021  36056.483106   -926.209855
PC09 -10126.374146  31141.719818 -26503.499352    -45.735075
PC10   1028.386249  40147.879584 -11748.246573     -6.482347
PC11  10429.503100  11365.986461  23314.567260    530.728576
PC12  -7846.377389  19967.039367  17859.742958    776.199776
PC13   3575.408891  24148.329465  34518.904245    382.100751
PC14  11092.843052  22401.045092 -12327.915061    702.088507
PC16 -20519.104705  32668.760179 -17160.658336   -848.206099
PC19 -14859.383309 -13813.266829  19189.549312    955.946268
PC20  -6609.067757 -26616.979583   5256.963083   -815.071867
PC21  -6123.320466  24117.798861  12620.873909   -937.714203
PC22 -14795.337092   7399.416226  22466.892013   -950.359934
PC23  23678.040591   -952.190553  14751.056943   -961.162787
PC24  10910.169598  18733.739955 -17581.155016   -964.152653
PC25  25321.292713  11676.923785  -1355.417442   -866.666415
PC26  -7584.457746  14402.312948 -22669.039046    861.007607
PC27  16051.348240 -20256.840628 -10533.340501    584.804191
PC28  24500.406206 -11346.664685   7077.301535    -35.676101
PC29 -18658.768028  -3534.815082 -20456.053050    436.609857
PC30  -1827.757663 -17493.564609 -21669.223957    478.207087
PC32   5950.329750 -24167.120408 -12622.311401   -934.090804
PC33  14927.894636  13792.005233 -19114.599554   -961.820369
PC34   2599.716684  17124.988158  21870.868343   -599.604328
PC35 -24144.559429  11888.527834  -7442.228360   -128.419291
PC36 -24882.137255 -12514.170952   1778.047072   -746.870224
PC37   8966.202047 -13711.012287  22616.824040   -861.828214
PC38 -11270.992583  20949.037881  34805.422813    170.236301
PC39 -23639.954084  33231.546331 -11000.676014     32.863470
PC41  14874.771380  -7090.408380 -22476.799140   -954.103920
PC42   6096.743299  26859.072057  -4396.227791   -937.376017
PC43  18319.310053   4188.196438  20615.460105   -878.904541
PC44 -15520.838527  20807.307417  10266.383690    353.200081
PC45 -23550.124452   1036.459131 -14908.718914    527.019094
PC46 -12043.689844 -18592.699796  16964.393810    121.015416
PC59 -32292.333188  27092.415492   -444.092027     -0.927009
PC60   7269.045887  41499.478101   1133.243270     -1.028841
PE01 -12746.018252  10594.806760 -24514.985353  -1176.779632
PE02  12654.592371 -10720.934023  24523.684392    241.552726
PE03  17096.937209 -21394.460735 -11253.690584   -466.309323
PE04  -5973.095512  28149.876957  -6923.489128   -840.153317
PE05  18365.397838  -1941.508826 -23132.129276   -255.384967
PE07  -8919.454741 -18416.967009  21397.559252   -576.662788
PE08   5620.437557 -28140.345125   7292.799436   5950.234157
PE09   9020.253275  18141.830722 -21571.622682   5557.975783
PE11  17447.537894  11262.576584  21075.855302   5542.938202
PE12  -5050.588741  16604.258688  23972.164503   5048.356235
PE13 -17023.034032 -11379.436903 -21376.739602    420.561337
PE14 -10446.283524 -19421.104302 -23910.834244  -1543.885841
PE15   4988.632604 -16549.868337 -24029.892152    796.624062
PE18  10928.967697  10376.788107  18102.822664  -1693.523723
PE19 -17799.575355  19588.379229  13258.060894    358.234331
PE21 -21925.657509  -7974.891434 -18210.252403   -683.414900
PE24  18270.606559  23300.323758    168.022859  -1075.852686
PE25  21971.953489   8167.605602  18088.167873   -544.046881
PE26 -29115.993522    921.572459  -5224.173361   1433.645751
PE27 -18845.984635 -22795.859468  -1095.305616   -103.239608
PE30  -3606.261001 -23755.471137  17280.785448   2682.444079
PE31   4734.301927  24100.347186 -16503.853512   -484.698434
PE33 -24003.243246  11959.488658  12525.750516   -465.971256
PE36  28951.856528   -475.473078   6144.521585   -251.724862
PG01 -12952.517906 -13359.054143 -19357.626574    590.456273
PG02 -12291.525897  14142.264629  19506.797215   -627.800912
PG03 -12020.167278 -23734.734633  -1001.319643   -262.591757
PG04  -5064.100974 -17152.456873  19621.910379   -204.080153
PG05   3692.852158  23143.588276  12171.675453    -51.897553
PG06 -23044.193557   6868.134812  11397.854780     60.219209
PG07 -24522.520045  -7034.065079   8621.046740    229.978303
PG08   3597.313483 -23014.270652 -12478.861565    -33.565048
PG09 -14050.870090  -6297.565390  21578.593955   -359.404729
PG10  16649.590726   1076.160442 -20613.852229   -187.400094
PG12  10009.309495  24651.318641  -1463.711863    -86.334112
PG13 -11991.850477  22531.298967  -7206.393232    174.674745
PG14 -16656.382404   -864.659846 -20682.731409     18.375921
PG15   -225.356954  23288.142101 -12826.569516   -126.660128
PG16   3085.973487 -20548.661360  16025.289106   -377.709364
PG17 -18912.935572   7627.827300 -16590.833636    493.035238
PG18  25326.587050   5427.989576   6068.699676    330.482700
PG19 -19838.316247  14425.423797 -10264.893781     42.788288
PG20  -5285.075558  17018.717539  19739.202483    519.528474
PG21  -4824.975478 -14581.232182 -21028.158796    138.562131
PG22  -8765.365093 -23723.169055  -8268.346651   -532.303692
PG23  18618.239871  12366.564090 -14424.225081     67.617622
PG24   8428.816356  14898.395460 -20649.054877    215.149482
PG25  16714.733237  19140.857685   7918.795707    195.264773
PG26  11117.723443 -11442.346404  21145.919006    125.424917
PG27  11597.101713 -23432.078098  -3545.631216   -181.834386
PG28 -13578.284692   5696.806041 -21559.472178    515.469294
PG29  11501.736876   9156.441089  22071.416808   -399.934089
PG30 -26445.596318   1105.817072  -3355.537086   -464.799858
PG31  22228.735927  -7766.013925  12640.064874   -135.585239
PG32  18882.030638 -11114.174465 -14774.098770      5.910537
PJ02 -22504.797311  18081.865986 -26206.116378     -1.753846
PJ03 -29395.083422  30018.340913   8420.310383     -1.055461
PR01  -9562.538136  15237.662603  18076.646938     84.207286
PR02  -2022.786506  25459.552450   -251.660850    490.546735
PR03   6319.802679  18564.468859 -16304.324092     41.616880
PR04  10731.273963   1305.029460 -23079.882618    101.154841
PR05   9339.191495 -16578.051666 -16967.877152     77.566595
PR06    754.894735 -25452.081353   1284.198087    203.654764
PR07  -6628.744345 -17933.251623  16895.283455    -41.584633
PR08 -10891.680549  -1194.556249  23086.823835    -60.534094
PR09  -5248.889882 -15224.237150  19829.931938      9.284560
PR10 -18239.771273 -16256.514318   7209.912192    -74.192765
PR11 -21639.062020  -8241.119910 -10702.166045     46.921559
PR12 -11580.613413   4928.997214 -22150.973033    255.632037
PR13   4538.462365  14698.320347 -20353.747022    -59.514429
PR14  18777.559770  16174.972243  -5976.141545     67.918213
PR15  21420.266167   8055.284021  11289.196622    101.930556
PR16  10684.835734  -6078.901287  22352.875809    -20.037269
PR17   9721.184400   6754.192343  22604.277994    451.873497
PR18  21605.352184  -3613.942569  13041.760469     87.782696
PR19  22785.365901 -11186.482562  -2594.746301   -156.341030
PR20   9171.610757 -13462.423142 -19614.732739    -54.561664
PR21 -10788.146556  -6032.046726 -22312.762249   -233.351258
PR22 -22081.613185   4165.751412 -12174.018252   -129.132313
PR23 -19621.493263  13503.671867   9104.425473    -12.040453
PR24  -8069.809601  13876.200942  19826.694991     55.470269
EOF
